NORAD_CAT_ID,OBJECT_NAME,OBJECT_TYPE,EPOCH,MEAN_MOTION,ECCENTRICITY,INCLINATION,RA_OF_ASC_NODE,ARG_OF_PERICENTER,MEAN_ANOMALY,BSTAR,MEAN_MOTION_DOT,MEAN_MOTION_DDOT,TLE_LINE0,TLE_LINE1,TLE_LINE2,SEMIMAJOR_AXIS,PERIOD,APOGEE,PERIGEE,DECAYED
53246.0,STARLINK-4131,PAYLOAD,2023-11-05 01:47:30,15.08842261,0.0001409,53.2172,85.1228,89.5548,270.5606,7.0774e-05,8.39e-06,0.0,0 STARLINK-4131,1 53246U 22086E   23309.07465705  .00000839  00000-0  70774-4 0  9998,2 53246  53.2172  85.1228 0001409  89.5548 270.5606 15.08842261 71574,6917.873,95.437,540.713,538.764,0.0
53246.0,STARLINK-4131,PAYLOAD,2023-11-05 14:30:34,15.08851304,0.0001511,53.2179,82.7445,94.0736,266.0428,0.00017651,2.523e-05,0.0,0 STARLINK-4131,1 53246U 22086E   23309.60456944  .00002523  00000-0  17651-3 0  9998,2 53246  53.2179  82.7445 0001511  94.0736 266.0428 15.08851304 71041,6917.846,95.437,540.756,538.666,0.0
53246.0,STARLINK-4131,PAYLOAD,2023-11-05 16:05:57,15.08855548,0.0001427,53.2172,82.4494,85.0268,275.0887,0.00032003,4.811e-05,0.0,0 STARLINK-4131,1 53246U 22086E   23309.67080976  .00004811  00000-0  32003-3 0  9993,2 53246  53.2172  82.4494 0001427  85.0268 275.0887 15.08855548 71662,6917.833,95.437,540.685,538.711,0.0
53246.0,STARLINK-4131,PAYLOAD,2023-11-06 14:21:23,15.08801242,0.0001416,53.2166,78.2832,67.3749,292.7393,-0.00058183,-9.526e-05,0.0,0 STARLINK-4131,1 53246U 22086E   23310.59819408 -.00009526  00000-0 -58183-3 0  9993,2 53246  53.2166  78.2832 0001416  67.3749 292.7393 15.08801242 71197,6917.999,95.44,540.843,538.884,0.0
53246.0,STARLINK-4131,PAYLOAD,2023-11-06 15:56:47,15.08804438,0.0001319,53.2162,77.9861,73.5329,286.5808,-0.00052061,-8.556e-05,0.0,0 STARLINK-4131,1 53246U 22086E   23310.66443350 -.00008556  00000-0 -52061-3 0  9991,2 53246  53.2162  77.9861 0001319  73.5329 286.5808 15.08804438 71817,6917.989,95.44,540.767,538.942,0.0
53246.0,STARLINK-4131,PAYLOAD,2023-11-07 01:29:06,15.08810961,0.0001297,53.217,76.2022,78.9141,281.1997,-0.00035353,-5.905e-05,0.0,0 STARLINK-4131,1 53246U 22086E   23311.06187607 -.00005905  00000-0 -35353-3 0  9996,2 53246  53.2170  76.2022 0001297  78.9141 281.1997 15.08810961 71877,6917.969,95.439,540.731,538.937,0.0
53246.0,STARLINK-4131,PAYLOAD,2023-11-07 14:12:11,15.08827796,0.0001463,53.2173,73.8253,83.2319,276.884,-0.00014271,-2.558e-05,0.0,0 STARLINK-4131,1 53246U 22086E   23311.59179418 -.00002558  00000-0 -14271-3 0  9992,2 53246  53.2173  73.8253 0001463  83.2319 276.8840 15.08827796 71344,6917.918,95.438,540.795,538.771,0.0
53246.0,STARLINK-4131,PAYLOAD,2023-11-07 15:47:33,15.08832606,0.0001283,53.2165,73.525,80.56,279.5538,-3.1445e-05,-7.88e-06,0.0,0 STARLINK-4131,1 53246U 22086E   23311.65803223 -.00000788  00000-0 -31445-4 0  9993,2 53246  53.2165  73.5250 0001283  80.5600 279.5538 15.08832606 71960,6917.903,95.438,540.656,538.88,0.0
53246.0,STARLINK-4131,PAYLOAD,2023-11-08 14:02:58,15.08855586,0.0001327,53.2159,69.3644,80.2498,279.8643,0.00096709,0.00015143,0.0,0 STARLINK-4131,1 53246U 22086E   23312.58539738  .00015143  00000-0  96709-3 0  9995,2 53246  53.2159  69.3644 0001327  80.2498 279.8643 15.08855586 71494,6917.833,95.437,540.616,538.78,0.0
53246.0,STARLINK-4131,PAYLOAD,2023-11-08 15:38:21,15.08866324,0.0001401,53.2166,69.067,79.2859,280.8291,0.0012392,0.00019503,0.0,0 STARLINK-4131,1 53246U 22086E   23312.65163547  .00019503  00000-0  12392-2 0  9993,2 53246  53.2166  69.0670 0001401  79.2859 280.8291 15.08866324 72113,6917.8,95.436,540.634,538.696,0.0
53246.0,STARLINK-4131,PAYLOAD,2023-11-09 01:10:39,15.08861768,0.0001375,53.2167,67.2831,79.3408,280.7739,0.00096973,0.00015188,0.0,0 STARLINK-4131,1 53246U 22086E   23313.04907333  .00015188  00000-0  96973-3 0  9999,2 53246  53.2167  67.2831 0001375  79.3408 280.7739 15.08861768 72173,6917.814,95.436,540.63,538.728,0.0
53246.0,STARLINK-4131,PAYLOAD,2023-11-09 12:18:21,15.08855048,0.0001913,53.2174,65.2019,83.0545,277.0665,0.00041789,6.372e-05,0.0,0 STARLINK-4131,1 53246U 22086E   23313.51275298  .00006372  00000-0  41789-3 0  9999,2 53246  53.2174  65.2019 0001913  83.0545 277.0665 15.08855048 72248,6917.834,95.437,541.023,538.376,0.0
53246.0,STARLINK-4131,PAYLOAD,2023-11-09 13:53:44,15.08850764,0.000166,53.2172,64.9048,82.8719,277.2461,0.00023448,3.447e-05,0.0,0 STARLINK-4131,1 53246U 22086E   23313.57899257  .00003447  00000-0  23448-3 0  9994,2 53246  53.2172  64.9048 0001660  82.8719 277.2461 15.08850764 71642,6917.847,95.437,540.861,538.564,0.0
53246.0,STARLINK-4131,PAYLOAD,2023-11-10 01:01:26,15.08847359,0.0001567,53.2169,62.8238,81.7577,278.3593,0.00026938,4.003e-05,0.0,0 STARLINK-4131,1 53246U 22086E   23314.04267141  .00004003  00000-0  26938-3 0  9994,2 53246  53.2169  62.8238 0001567  81.7577 278.3593 15.08847359 72322,6917.858,95.437,540.807,538.639,0.0
53246.0,STARLINK-4131,PAYLOAD,2023-11-10 13:44:31,15.0884874,0.0001603,53.2179,60.4442,91.7948,268.3228,6.9642e-05,8.21e-06,0.0,0 STARLINK-4131,1 53246U 22086E   23314.57259051  .00000821  00000-0  69642-4 0  9997,2 53246  53.2179  60.4442 0001603  91.7948 268.3228 15.08848740 71797,6917.854,95.437,540.828,538.61,0.0
53246.0,STARLINK-4131,PAYLOAD,2023-11-11 11:59:56,15.08834885,0.0001479,53.2182,56.2801,102.8027,257.313,0.00034511,5.208e-05,0.0,0 STARLINK-4131,1 53246U 22086E   23315.49995624  .00005208  00000-0  34511-3 0  9992,2 53246  53.2182  56.2801 0001479 102.8027 257.3130 15.08834885 72545,6917.896,95.438,540.784,538.738,0.0
53246.0,STARLINK-4131,PAYLOAD,2023-11-11 13:35:18,15.08844996,0.0001564,53.2189,55.9829,104.3333,255.7833,7.175e-05,8.54e-06,0.0,0 STARLINK-4131,1 53246U 22086E   23315.56618955  .00000854  00000-0  71750-4 0  9998,2 53246  53.2189  55.9829 0001564 104.3333 255.7833 15.08844996 71949,6917.865,95.437,540.812,538.648,0.0
53246.0,STARLINK-4131,PAYLOAD,2023-11-12 11:50:42,15.08841552,0.0001445,53.2186,51.8183,91.4318,268.684,8.6305e-05,1.086e-05,0.0,0 STARLINK-4131,1 53246U 22086E   23316.49355126  .00001086  00000-0  86305-4 0  9999,2 53246  53.2186  51.8183 0001445  91.4318 268.6840 15.08841552 72690,6917.876,95.437,540.74,538.741,0.0
53246.0,STARLINK-4131,PAYLOAD,2023-11-12 13:26:05,15.08844763,0.0001479,53.2187,51.5194,96.9386,263.1775,0.00010804,1.432e-05,0.0,0 STARLINK-4131,1 53246U 22086E   23316.55978837  .00001432  00000-0  10804-3 0  9991,2 53246  53.2187  51.5194 0001479  96.9386 263.1775 15.08844763 72090,6917.866,95.437,540.754,538.708,0.0
53246.0,STARLINK-4131,PAYLOAD,2023-11-13 11:41:29,15.08845837,0.0001589,53.2193,47.3572,90.0873,270.0301,7.9473e-05,9.77e-06,0.0,0 STARLINK-4131,1 53246U 22086E   23317.48714743  .00000977  00000-0  79473-4 0  9999,2 53246  53.2193  47.3572 0001589  90.0873 270.0301 15.08845837 72239,6917.863,95.437,540.827,538.628,0.0
53246.0,STARLINK-4131,PAYLOAD,2023-11-13 13:16:52,15.08849446,0.0001544,53.2191,47.0645,93.2204,266.8965,0.00014402,2.005e-05,0.0,0 STARLINK-4131,1 53246U 22086E   23317.55338341  .00002005  00000-0  14402-3 0  9997,2 53246  53.2191  47.0645 0001544  93.2204 266.8965 15.08849446 72856,6917.852,95.437,540.785,538.648,0.0
53246.0,STARLINK-4131,PAYLOAD,2023-11-13 22:49:11,15.08843112,0.0001443,53.2195,45.277,82.0491,278.0665,0.00010277,1.348e-05,0.0,0 STARLINK-4131,1 53246U 22086E   23317.95082714  .00001348  00000-0  10277-3 0  9996,2 53246  53.2195  45.2770 0001443  82.0491 278.0665 15.08843112 72914,6917.871,95.437,540.734,538.738,0.0
53246.0,STARLINK-4131,PAYLOAD,2023-11-14 11:32:17,15.08830954,0.0001498,53.2186,42.898,77.5677,282.5483,-5.6645e-05,-1.189e-05,0.0,0 STARLINK-4131,1 53246U 22086E   23318.48076191 -.00001189  00000-0 -56645-4 0  9992,2 53246  53.2186  42.8980 0001498  77.5677 282.5483 15.08830954 72991,6917.908,95.438,540.809,538.737,0.0
53246.0,STARLINK-4131,PAYLOAD,2023-11-14 13:07:40,15.08833134,0.0001487,53.2188,42.6007,75.3188,284.7969,-3.5039e-05,-8.45e-06,0.0,0 STARLINK-4131,1 53246U 22086E   23318.54700043 -.00000845  00000-0 -35039-4 0  9991,2 53246  53.2188  42.6007 0001487  75.3188 284.7969 15.08833134 72392,6917.901,95.438,540.795,538.738,0.0
53246.0,STARLINK-4131,PAYLOAD,2023-11-14 14:43:03,15.0883495,0.0001543,53.219,42.3029,75.3163,284.8,-1.8113e-05,-5.76e-06,0.0,0 STARLINK-4131,1 53246U 22086E   23318.61323930 -.00000576  00000-0 -18113-4 0  9990,2 53246  53.2190  42.3029 0001543  75.3163 284.8000 15.08834950 72408,6917.896,95.438,540.828,538.693,0.0
53246.0,STARLINK-4131,PAYLOAD,2023-11-15 11:23:04,15.0884556,0.0001547,53.2201,38.4417,86.2357,273.8812,4.2024e-05,3.81e-06,0.0,0 STARLINK-4131,1 53246U 22086E   23319.47435256  .00000381  00000-0  42024-4 0  9990,2 53246  53.2201  38.4417 0001547  86.2357 273.8812 15.08845560 73148,6917.863,95.437,540.799,538.658,0.0
53246.0,STARLINK-4131,PAYLOAD,2023-11-15 12:58:27,15.08848366,0.0001514,53.2196,38.1437,84.0367,276.0798,7.304e-05,8.75e-06,0.0,0 STARLINK-4131,1 53246U 22086E   23319.54059032  .00000875  00000-0  73040-4 0  9992,2 53246  53.2196  38.1437 0001514  84.0367 276.0798 15.08848366 72549,6917.855,95.437,540.767,538.672,0.0
53246.0,STARLINK-4131,PAYLOAD,2023-11-15 22:30:45,15.08843554,0.0001492,53.2188,36.3588,79.8995,280.2165,7.2003e-05,8.58e-06,0.0,0 STARLINK-4131,1 53246U 22086E   23319.93803187  .00000858  00000-0  72003-4 0  9992,2 53246  53.2188  36.3588 0001492  79.8995 280.2165 15.08843554 72607,6917.87,95.437,540.767,538.702,0.0
53246.0,STARLINK-4131,PAYLOAD,2023-11-16 04:52:18,15.08837086,0.0001606,53.2179,35.1715,74.6128,285.5041,0.00023023,3.378e-05,0.0,0 STARLINK-4131,1 53246U 22086E   23320.20299652  .00003378  00000-0  23023-3 0  9997,2 53246  53.2179  35.1715 0001606  74.6128 285.5041 15.08837086 73250,6917.889,95.438,540.865,538.643,0.0
53246.0,STARLINK-4131,PAYLOAD,2023-11-16 14:24:37,15.08839903,0.0001855,53.2185,33.3851,76.898,283.2219,0.00015628,2.2e-05,0.0,0 STARLINK-4131,1 53246U 22086E   23320.60043682  .00002200  00000-0  15628-3 0  9996,2 53246  53.2185  33.3851 0001855  76.8980 283.2219 15.08839903 72705,6917.881,95.438,541.029,538.462,0.0
